     2.100          NAVIGATION                              RINEX VERSION / TYPE
fic2rin                                 11/03/2010 00:14:39 PGM / RUN BY / DATE
                                                            END OF HEADER
28 10 11  2  7 59 44.0  .291829928756D-05  .170530256582D-11  .000000000000D+00
     .200000000000D+01 -.875000000000D+00  .488734643474D-08 -.452797456306D+00
     .651925802231D-07  .163522816729D-01  .443495810032D-05  .515367681694D+04
     .201584000000D+06 -.130385160446D-06  .711670405712D+00  .968575477600D-07
     .971961196302D+00  .301125000000D+03 -.194115135073D+01 -.869179061940D-08
     .153577825704D-10  .100000000000D+01  .160800000000D+04  .000000000000D+00
     .240000000000D+01  .000000000000D+00 -.107102096081D-07  .200000000000D+01
     .199206000000D+06  .400000000000D+01
31 10 11  2  7 59 44.0  .481540337205D-05  .363797880709D-11  .000000000000D+00
     .100000000000D+01  .191250000000D+02  .409124184522D-08  .228644436580D+01
     .118464231491D-05  .753265595995D-02  .111926347017D-04  .515379600716D+04
     .201584000000D+06  .180676579475D-06 -.366895575245D+00 -.763684511185D-07
     .978528179969D+00  .169281250000D+03 -.105116050752D+01 -.775210862073D-08
     .240724312848D-09  .100000000000D+01  .160800000000D+04  .000000000000D+00
     .240000000000D+01  .000000000000D+00 -.130385160446D-07  .100000000000D+01
     .201486000000D+06  .400000000000D+01
 3 10 11  2  9 59 44.0  .629715155810D-03  .500222085975D-11  .000000000000D+00
     .370000000000D+02 -.754687500000D+02  .549022869006D-08 -.133519416157D+01
    -.381469726562D-05  .138123990037D-01  .771507620811D-05  .515361648750D+04
     .208784000000D+06  .331550836563D-06  .159761954274D+01  .197440385818D-06
     .927434641067D+00  .210500000000D+03  .105374943511D+01 -.860178687038D-08
    -.559309011751D-09  .100000000000D+01  .160800000000D+04  .000000000000D+00
     .240000000000D+01  .000000000000D+00 -.465661287308D-08  .370000000000D+02
     .201606000000D+06  .400000000000D+01
28 10 11  2  9 59 44.0  .293040648103D-05  .170530256582D-11  .000000000000D+00
     .300000000000D+01  .743750000000D+01  .488234622646D-08  .597390257508D+00
     .510364770889D-06  .163537194021D-01  .491365790367D-05  .515367957497D+04
     .208784000000D+06 -.119209289551D-06  .711607680173D+00  .931322574615D-07
     .971961342594D+00  .294718750000D+03 -.194115855122D+01 -.870036240502D-08
     .303584074067D-10  .100000000000D+01  .160800000000D+04  .000000000000D+00
     .240000000000D+01  .000000000000D+00 -.107102096081D-07  .300000000000D+01
     .201606000000D+06  .400000000000D+01
31 10 11  2  9 59 44.0  .484148040414D-05  .363797880709D-11  .000000000000D+00
     .140000000000D+02  .259375000000D+02  .405731186047D-08 -.294676675362D+01
     .147707760334D-05  .753194571007D-02  .117849558592D-04  .515379784012D+04
     .208784000000D+06  .540167093277D-07 -.366952370113D+00  .154599547386D-06
     .978530823462D+00  .158843750000D+03 -.105103257534D+01 -.770889253489D-08
     .450018745087D-09  .100000000000D+01  .160800000000D+04  .000000000000D+00
     .240000000000D+01  .000000000000D+00 -.130385160446D-07  .140000000000D+02
     .201606000000D+06  .400000000000D+01
 1 10 11  2 10  0  0.0 -.178309623152D-03 -.363797880709D-11  .000000000000D+00
     .800000000000D+02  .853125000000D+01  .502628079334D-08  .256054135945D+00
     .601634383202D-06  .442215602379D-02  .456534326077D-05  .515351235580D+04
     .208800000000D+06 -.167638063431D-07  .671108043944D+00  .167638063431D-07
     .966491063261D+00  .291906250000D+03  .951347546804D+00 -.854178437103D-08
     .124648049234D-09  .100000000000D+01  .160800000000D+04  .000000000000D+00
     .240000000000D+01  .630000000000D+02 -.190921127796D-07  .800000000000D+02
     .201606000000D+06  .400000000000D+01
 2 10 11  2 10  0  0.0  .299665145576D-03  .261479726760D-11  .000000000000D+00
     .230000000000D+02  .676875000000D+02  .477305595980D-08 -.122097635269D+01
     .352412462234D-05  .974779645912D-02  .110790133476D-04  .515366214943D+04
     .208800000000D+06 -.633299350739D-07  .275245293643D+01 -.255182385445D-06
     .939817983671D+00  .159250000000D+03 -.313640543135D+01 -.810712340852D-08
     .217509060125D-09  .100000000000D+01  .160800000000D+04  .000000000000D+00
     .240000000000D+01  .000000000000D+00 -.172294676304D-07  .230000000000D+02
     .201606000000D+06  .400000000000D+01
 4 10 11  2 10  0  0.0  .209258869290D-03  .966338120634D-11  .000000000000D+00
     .105000000000D+03  .584375000000D+02  .478841374237D-08  .175755758071D+01
     .305473804474D-05  .945178023539D-02  .117085874081D-04  .515378399086D+04
     .208800000000D+06 -.186264514923D-06  .277010818082D+01 -.130385160446D-07
     .938944494304D+00  .148125000000D+03  .667586846940D+00 -.823677166603D-08
     .507163982558D-10  .100000000000D+01  .160800000000D+04  .000000000000D+00
     .240000000000D+01  .000000000000D+00 -.605359673500D-08  .105000000000D+03
     .201606000000D+06  .400000000000D+01
 5 10 11  2 10  0  0.0 -.610169954598D-04 -.591171556152D-11  .000000000000D+00
     .360000000000D+02  .352187500000D+02  .489127516982D-08  .467503732881D+00
     .190734863281D-05  .200800423045D-02  .332482159138D-05  .515354983139D+04
     .208800000000D+06  .428408384323D-07 -.247036306749D+01 -.186264514923D-08
     .956598697101D+00  .310937500000D+03  .168365179028D+00 -.853821279369D-08
     .127148153374D-09  .100000000000D+01  .160800000000D+04  .000000000000D+00
     .240000000000D+01  .000000000000D+00 -.977888703346D-08  .360000000000D+02
     .201606000000D+06  .400000000000D+01
 6 10 11  2 10  0  0.0  .434252899140D-03 -.130739863380D-10  .000000000000D+00
     .780000000000D+02 -.816875000000D+02  .530664961469D-08  .821556903291D+00
    -.449642539024D-05  .617074395996D-02  .877119600773D-05  .515365549660D+04
     .208800000000D+06  .745058059692D-07  .166957959361D+01 -.135973095894D-06
     .934700993202D+00  .197031250000D+03 -.921051947042D+00 -.858464329914D-08
    -.591096050095D-09  .100000000000D+01  .160800000000D+04  .000000000000D+00
     .240000000000D+01  .000000000000D+00 -.465661287308D-08  .780000000000D+02
     .201606000000D+06  .400000000000D+01
 7 10 11  2 10  0  0.0 -.969972461462D-06  .341060513165D-12  .000000000000D+00
     .820000000000D+02  .223437500000D+02  .413017203824D-08 -.294024054733D+01
     .130198895931D-05  .417053059209D-02  .114720314741D-04  .515369140625D+04
     .208800000000D+06 -.651925802231D-07 -.367278858319D+00 -.484287738800D-07
     .973320437377D+00  .168437500000D+03 -.314031461471D+01 -.777175229611D-08
     .382515933324D-09  .100000000000D+01  .160800000000D+04  .000000000000D+00
     .240000000000D+01  .000000000000D+00 -.102445483208D-07  .820000000000D+02
     .201606000000D+06  .400000000000D+01
 8 10 11  2 10  0  0.0  .689644366503D-05  .000000000000D+00  .000000000000D+00
     .170000000000D+02  .257812500000D+02  .367372445394D-08  .277774685000D+01
     .144541263580D-05  .115369424457D-01  .111628323793D-04  .515365831566D+04
     .208800000000D+06 -.268220901489D-06 -.296106833147D+00  .111758708954D-07
     .994852976443D+00  .184062500000D+03 -.312090169472D+01 -.751959893576D-08
     .433232331580D-09  .100000000000D+01  .160800000000D+04  .000000000000D+00
     .240000000000D+01  .000000000000D+00 -.419095158577D-08  .170000000000D+02
     .201606000000D+06  .400000000000D+01
 9 10 11  2 10  0  0.0  .400599092245D-04  .227373675443D-11  .000000000000D+00
     .530000000000D+02  .323125000000D+02  .386980405001D-08  .265698313810D+01
     .153854489326D-05  .169573993189D-01  .114515423775D-04  .515370086479D+04
     .208800000000D+06  .199303030968D-06 -.397260419308D+00 -.540167093277D-07
     .982335833888D+00  .165562500000D+03  .155337028802D+01 -.746531096017D-08
     .316084594764D-09  .100000000000D+01  .160800000000D+04  .000000000000D+00
     .240000000000D+01  .000000000000D+00 -.558793544769D-08  .530000000000D+02
     .201606000000D+06  .400000000000D+01
10 10 11  2 10  0  0.0 -.568428076804D-04 -.102318153949D-11  .000000000000D+00
     .690000000000D+02  .423125000000D+02  .502985237068D-08  .625953522345D+00
     .227056443691D-05  .955403747503D-02  .351667404175D-05  .515353418350D+04
     .208800000000D+06 -.428408384323D-07 -.244550226691D+01  .121071934700D-06
     .951569973257D+00  .306156250000D+03  .666359313843D+00 -.871250576798D-08
     .435732435719D-10  .100000000000D+01  .160800000000D+04  .000000000000D+00
     .340000000000D+01  .000000000000D+00 -.279396772385D-08  .690000000000D+02
     .201606000000D+06  .400000000000D+01
11 10 11  2 10  0  0.0 -.100966077298D-03 -.284217094304D-11  .000000000000D+00
     .190000000000D+02  .161250000000D+02  .582488548700D-08 -.302761162386D+01
     .838190317154D-06  .113679306814D-01  .122059136629D-04  .515348306465D+04
     .208800000000D+06  .558793544769D-07  .252588855767D+01 -.143423676491D-06
     .888370080660D+00  .103093750000D+03  .872980246834D+00 -.847035282419D-08
     .464305054455D-11  .100000000000D+01  .160800000000D+04  .000000000000D+00
     .240000000000D+01  .000000000000D+00 -.116415321827D-07  .190000000000D+02
     .201606000000D+06  .400000000000D+01
12 10 11  2 10  0  0.0 -.577201135457D-04  .363797880709D-11  .000000000000D+00
     .880000000000D+02  .409375000000D+01  .473769734411D-08 -.290369139264D+01
     .195577740669D-06  .332083564717D-02  .466033816338D-05  .515356813240D+04
     .208800000000D+06 -.875443220139D-07  .686487625639D+00 -.186264514923D-08
     .972591994875D+00  .294156250000D+03 -.319884018122D+00 -.823998608564D-08
     .125362364703D-09  .100000000000D+01  .160800000000D+04  .000000000000D+00
     .240000000000D+01  .000000000000D+00 -.116415321827D-07  .880000000000D+02
     .201606000000D+06  .400000000000D+01
